GLOBALSTAR M075         
1 37192U 10054E   24123.05938866 -.00000074  00000+0  16491-3 0  9994
2 37192  51.9966 353.3312 0000915  86.6668  60.8070 12.62273408624452
GLOBALSTAR M073         
1 37193U 10054F   24122.71314309 -.00000081  00000+0  12843-3 0  9992
2 37193  52.0057 267.8900 0000792 122.1912 250.7498 12.62264559625877
GLOBALSTAR M083         
1 37739U 11033A   24122.56781355 -.00000087  00000+0  93888-4 0  9993
2 37739  51.9850 217.6257 0000542 100.6460 272.4734 12.62269626594871
GLOBALSTAR M088         
1 37740U 11033B   24123.25381343 -.00000088  00000+0  87776-4 0  9995
2 37740  51.9708 121.3715 0000449  63.2743 309.1676 12.62267783590791
GLOBALSTAR M091         
1 37741U 11033C   24122.66853458 -.00000092  00000+0  66667-4 0  9992
2 37741  51.9992  85.9726 0000744  54.6367 116.4339 12.62262059591212
GLOBALSTAR M085         
1 37742U 11033D   24123.18672793 -.00000084  00000+0  11289-3 0  9992
2 37742  51.9890  35.7982 0000940  67.8862 359.2596 12.62270243592285
GLOBALSTAR M081         
1 37743U 11033E   24122.81010153 -.00000088  00000+0  88613-4 0  9998
2 37743  51.9979  39.4781 0000958  78.5620 316.1741 12.62271293591898
GLOBALSTAR M089         
1 37744U 11033F   24123.03314847 -.00000071  00000+0  18241-3 0  9992
2 37744  51.9949 353.1085 0000749 112.2842  35.2954 12.62262962593013
